STARLINK-34451          
1 64433U 25129X   25318.26273023  .00004058  00000+0  34769-3 0  9991
2 64433  70.0029   5.6415 0002587 270.1959  89.8904 14.98329737 23934
STARLINK-34472          
1 64434U 25129Y   25318.17927304 -.00003451  00000+0 -28147-3 0  9991
2 64434  70.0033   5.7526 0003034 268.6713  91.4099 14.98341168 23983
STARLINK-34478          
1 64435U 25129Z   25317.49496641  .00012866  00000+0  10847-2 0  9996
2 64435  70.0025   7.3748 0002925 274.0600  86.0225 14.98309760 23829
STARLINK-34396          
1 64436U 25129AA  25318.18762040  .00004672  00000+0  39919-3 0  9991
2 64436  70.0030   5.7723 0003491 276.0141  84.0620 14.98319913 23921
STARLINK-34507          
1 64437U 25129AB  25318.33335648 -.00022129  00000+0 -18533-2 0  9996
2 64437  70.0027   5.1851 0003382 275.4159 353.1062 14.98315465  5787
STARLINK-34465          
1 64438U 25130A   25318.27902648  .00050296  00000+0  16986-2 0  9996
2 64438  53.1589 264.5825 0000962  80.7012 279.4097 15.30203831 23037
STARLINK-34456          
1 64439U 25130B   25318.26847482  .00048838  00000+0  16502-2 0  9993
2 64439  53.1600 264.5163 0001215  77.4918 282.6219 15.30201874 23034
STARLINK-34410          
1 64440U 25130C   25317.86709122  .00071410  00000+0  23978-2 0  9995
2 64440  53.1597 266.2759 0001615  56.8927 303.2228 15.30230775 22970
STARLINK-34453          
1 64441U 25130D   25318.29485490  .00031253  00000+0  10626-2 0  9990
2 64441  53.1601 264.6813 0001640 105.2422 254.8760 15.30207955 23031
STARLINK-34404          
1 64442U 25130E   25318.28220818  .00049755  00000+0  16813-2 0  9991
2 64442  53.1583 264.5977 0002034  72.0260 288.0962 15.30189467 23030
STARLINK-34403          
1 64443U 25130F   25318.26109037  .00048388  00000+0  16348-2 0  9993
2 64443  53.1612 264.4667 0002177  44.1953 315.9222 15.30208376 23036
STARLINK-34399          
1 64444U 25130G   25318.29698243  .00046123  00000+0  15586-2 0  9997
2 64444  53.1595 264.6868 0001037  94.9715 265.1404 15.30224486 23033
STARLINK-34398          
1 64445U 25130H   25318.24010570  .00029706  00000+0  10124-2 0  9995
2 64445  53.1602 265.0461 0001235 113.8849 246.2281 15.30156449 23021
STARLINK-34402          
1 64446U 25130J   25318.25265723  .00034616  00000+0  11768-2 0  9990
2 64446  53.1615 264.4107 0001448  80.2004 279.9160 15.30162156 23034
STARLINK-34450          
1 64447U 25130K   25318.17267629  .00020342  00000+0  69814-3 0  9996
2 64447  53.1608 265.3357 0001256  67.8691 292.2443 15.30148800 23014
STARLINK-34433          
1 64448U 25130L   25318.18007137  .00045263  00000+0  15324-2 0  9999
2 64448  53.1611 265.3781 0001254  79.1040 281.0102 15.30171807 23013
