[{"OBJECT_NAME":"STARLINK-34451","OBJECT_ID":"2025-129X","EPOCH":"2025-11-14T06:18:19.891872","MEAN_MOTION":14.98329737,"ECCENTRICITY":0.00025876,"INCLINATION":70.0029,"RA_OF_ASC_NODE":5.6415,"ARG_OF_PERICENTER":270.1959,"MEAN_ANOMALY":89.8904,"EPHEMERIS_TYPE":0,"CLASSIFICATION_TYPE":"U","NORAD_CAT_ID":64433,"ELEMENT_SET_NO":999,"REV_AT_EPOCH":2393,"BSTAR":0.00034769334,"MEAN_MOTION_DOT":4.058e-5,"MEAN_MOTION_DDOT":0},{"OBJECT_NAME":"STARLINK-34472","OBJECT_ID":"2025-129Y","EPOCH":"2025-11-14T04:18:09.190656","MEAN_MOTION":14.98341168,"ECCENTRICITY":0.00030341,"INCLINATION":70.0033,"RA_OF_ASC_NODE":5.7526,"ARG_OF_PERICENTER":268.6713,"MEAN_ANOMALY":91.4099,"EPHEMERIS_TYPE":0,"CLASSIFICATION_TYPE":"U","NORAD_CAT_ID":64434,"ELEMENT_SET_NO":999,"REV_AT_EPOCH":2398,"BSTAR":-0.00028146698,"MEAN_MOTION_DOT":-3.451e-5,"MEAN_MOTION_DDOT":0},{"OBJECT_NAME":"STARLINK-34478","OBJECT_ID":"2025-129Z","EPOCH":"2025-11-13T11:52:45.097824","MEAN_MOTION":14.9830976,"ECCENTRICITY":0.0002925,"INCLINATION":70.0025,"RA_OF_ASC_NODE":7.3748,"ARG_OF_PERICENTER":274.06,"MEAN_ANOMALY":86.0225,"EPHEMERIS_TYPE":0,"CLASSIFICATION_TYPE":"U","NORAD_CAT_ID":64435,"ELEMENT_SET_NO":999,"REV_AT_EPOCH":2382,"BSTAR":0.0010847,"MEAN_MOTION_DOT":0.00012866,"MEAN_MOTION_DDOT":0},{"OBJECT_NAME":"STARLINK-34396","OBJECT_ID":"2025-129AA","EPOCH":"2025-11-14T04:30:10.402560","MEAN_MOTION":14.98319913,"ECCENTRICITY":0.00034912,"INCLINATION":70.003,"RA_OF_ASC_NODE":5.7723,"ARG_OF_PERICENTER":276.0141,"MEAN_ANOMALY":84.062,"EPHEMERIS_TYPE":0,"CLASSIFICATION_TYPE":"U","NORAD_CAT_ID":64436,"ELEMENT_SET_NO":999,"REV_AT_EPOCH":2392,"BSTAR":0.00039918923,"MEAN_MOTION_DOT":4.672e-5,"MEAN_MOTION_DDOT":0},{"OBJECT_NAME":"STARLINK-34507","OBJECT_ID":"2025-129AB","EPOCH":"2025-11-14T08:00:01.999872","MEAN_MOTION":14.98315465,"ECCENTRICITY":0.00033825,"INCLINATION":70.0027,"RA_OF_ASC_NODE":5.1851,"ARG_OF_PERICENTER":275.4159,"MEAN_ANOMALY":353.1062,"EPHEMERIS_TYPE":0,"CLASSIFICATION_TYPE":"U","NORAD_CAT_ID":64437,"ELEMENT_SET_NO":999,"REV_AT_EPOCH":578,"BSTAR":-0.0018532938,"MEAN_MOTION_DOT":-0.00022129,"MEAN_MOTION_DDOT":0},{"OBJECT_NAME":"STARLINK-34465","OBJECT_ID":"2025-130A","EPOCH":"2025-11-14T06:41:47.887872","MEAN_MOTION":15.30203831,"ECCENTRICITY":9.628e-5,"INCLINATION":53.1589,"RA_OF_ASC_NODE":264.5825,"ARG_OF_PERICENTER":80.7012,"MEAN_ANOMALY":279.4097,"EPHEMERIS_TYPE":0,"CLASSIFICATION_TYPE":"U","NORAD_CAT_ID":64438,"ELEMENT_SET_NO":999,"REV_AT_EPOCH":2303,"BSTAR":0.0016986127,"MEAN_MOTION_DOT":0.00050296,"MEAN_MOTION_DDOT":0},{"OBJECT_NAME":"STARLINK-34456","OBJECT_ID":"2025-130B","EPOCH":"2025-11-14T06:26:36.224448","MEAN_MOTION":15.30201874,"ECCENTRICITY":0.00012159,"INCLINATION":53.16,"RA_OF_ASC_NODE":264.5163,"ARG_OF_PERICENTER":77.4918,"MEAN_ANOMALY":282.6219,"EPHEMERIS_TYPE":0,"CLASSIFICATION_TYPE":"U","NORAD_CAT_ID":64439,"ELEMENT_SET_NO":999,"REV_AT_EPOCH":2303,"BSTAR":0.0016501556,"MEAN_MOTION_DOT":0.00048838,"MEAN_MOTION_DDOT":0},{"OBJECT_NAME":"STARLINK-34410","OBJECT_ID":"2025-130C","EPOCH":"2025-11-13T20:48:36.681408","MEAN_MOTION":15.30230775,"ECCENTRICITY":0.00016154,"INCLINATION":53.1597,"RA_OF_ASC_NODE":266.2759,"ARG_OF_PERICENTER":56.8927,"MEAN_ANOMALY":303.2228,"EPHEMERIS_TYPE":0,"CLASSIFICATION_TYPE":"U","NORAD_CAT_ID":64440,"ELEMENT_SET_NO":999,"REV_AT_EPOCH":2297,"BSTAR":0.0023977955,"MEAN_MOTION_DOT":0.0007141,"MEAN_MOTION_DDOT":0},{"OBJECT_NAME":"STARLINK-34453","OBJECT_ID":"2025-130D","EPOCH":"2025-11-14T07:04:35.463360","MEAN_MOTION":15.30207955,"ECCENTRICITY":0.00016401,"INCLINATION":53.1601,"RA_OF_ASC_NODE":264.6813,"ARG_OF_PERICENTER":105.2422,"MEAN_ANOMALY":254.876,"EPHEMERIS_TYPE":0,"CLASSIFICATION_TYPE":"U","NORAD_CAT_ID":64441,"ELEMENT_SET_NO":999,"REV_AT_EPOCH":2303,"BSTAR":0.0010626275,"MEAN_MOTION_DOT":0.00031253,"MEAN_MOTION_DDOT":0},{"OBJECT_NAME":"STARLINK-34404","OBJECT_ID":"2025-130E","EPOCH":"2025-11-14T06:46:22.786752","MEAN_MOTION":15.30189467,"ECCENTRICITY":0.00020343,"INCLINATION":53.1583,"RA_OF_ASC_NODE":264.5977,"ARG_OF_PERICENTER":72.026,"MEAN_ANOMALY":288.0962,"EPHEMERIS_TYPE":0,"CLASSIFICATION_TYPE":"U","NORAD_CAT_ID":64442,"ELEMENT_SET_NO":999,"REV_AT_EPOCH":2303,"BSTAR":0.0016813044,"MEAN_MOTION_DOT":0.00049755,"MEAN_MOTION_DDOT":0},{"OBJECT_NAME":"STARLINK-34403","OBJECT_ID":"2025-130F","EPOCH":"2025-11-14T06:15:58.207968","MEAN_MOTION":15.30208376,"ECCENTRICITY":0.00021779,"INCLINATION":53.1612,"RA_OF_ASC_NODE":264.4667,"ARG_OF_PERICENTER":44.1953,"MEAN_ANOMALY":315.9222,"EPHEMERIS_TYPE":0,"CLASSIFICATION_TYPE":"U","NORAD_CAT_ID":64443,"ELEMENT_SET_NO":999,"REV_AT_EPOCH":2303,"BSTAR":0.0016347856,"MEAN_MOTION_DOT":0.00048388,"MEAN_MOTION_DDOT":0},{"OBJECT_NAME":"STARLINK-34399","OBJECT_ID":"2025-130G","EPOCH":"2025-11-14T07:07:39.281952","MEAN_MOTION":15.30224486,"ECCENTRICITY":0.00010374,"INCLINATION":53.1595,"RA_OF_ASC_NODE":264.6868,"ARG_OF_PERICENTER":94.9715,"MEAN_ANOMALY":265.1404,"EPHEMERIS_TYPE":0,"CLASSIFICATION_TYPE":"U","NORAD_CAT_ID":64444,"ELEMENT_SET_NO":999,"REV_AT_EPOCH":2303,"BSTAR":0.0015585733,"MEAN_MOTION_DOT":0.00046123,"MEAN_MOTION_DDOT":0},{"OBJECT_NAME":"STARLINK-34398","OBJECT_ID":"2025-130H","EPOCH":"2025-11-14T05:45:45.132480","MEAN_MOTION":15.30156449,"ECCENTRICITY":0.00012356,"INCLINATION":53.1602,"RA_OF_ASC_NODE":265.0461,"ARG_OF_PERICENTER":113.8849,"MEAN_ANOMALY":246.2281,"EPHEMERIS_TYPE":0,"CLASSIFICATION_TYPE":"U","NORAD_CAT_ID":64445,"ELEMENT_SET_NO":999,"REV_AT_EPOCH":2302,"BSTAR":0.0010124456,"MEAN_MOTION_DOT":0.00029706,"MEAN_MOTION_DDOT":0},{"OBJECT_NAME":"STARLINK-34402","OBJECT_ID":"2025-130J","EPOCH":"2025-11-14T06:03:49.584672","MEAN_MOTION":15.30162156,"ECCENTRICITY":0.00014481,"INCLINATION":53.1615,"RA_OF_ASC_NODE":264.4107,"ARG_OF_PERICENTER":80.2004,"MEAN_ANOMALY":279.916,"EPHEMERIS_TYPE":0,"CLASSIFICATION_TYPE":"U","NORAD_CAT_ID":64446,"ELEMENT_SET_NO":999,"REV_AT_EPOCH":2303,"BSTAR":0.0011767955,"MEAN_MOTION_DOT":0.00034616,"MEAN_MOTION_DDOT":0},{"OBJECT_NAME":"STARLINK-34450","OBJECT_ID":"2025-130K","EPOCH":"2025-11-14T04:08:39.231456","MEAN_MOTION":15.301488,"ECCENTRICITY":0.0001256,"INCLINATION":53.1608,"RA_OF_ASC_NODE":265.3357,"ARG_OF_PERICENTER":67.8691,"MEAN_ANOMALY":292.2443,"EPHEMERIS_TYPE":0,"CLASSIFICATION_TYPE":"U","NORAD_CAT_ID":64447,"ELEMENT_SET_NO":999,"REV_AT_EPOCH":2301,"BSTAR":0.00069813566,"MEAN_MOTION_DOT":0.00020342,"MEAN_MOTION_DDOT":0},{"OBJECT_NAME":"STARLINK-34433","OBJECT_ID":"2025-130L","EPOCH":"2025-11-14T04:19:18.166368","MEAN_MOTION":15.30171807,"ECCENTRICITY":0.00012542,"INCLINATION":53.1611,"RA_OF_ASC_NODE":265.3781,"ARG_OF_PERICENTER":79.104,"MEAN_ANOMALY":281.0102,"EPHEMERIS_TYPE":0,"CLASSIFICATION_TYPE":"U","NORAD_CAT_ID":64448,"ELEMENT_SET_NO":999,"REV_AT_EPOCH":2301,"BSTAR":0.0015323944,"MEAN_MOTION_DOT":0.00045263,"MEAN_MOTION_DDOT":0}]
